{"type": "FeatureCollection", "features": [ {"type": "Feature", "properties": {"norad_id": 43010, "name": "FENGYUN 3D", "group": "weather", "lat": -80.33750434339099, "lon": 61.27943253584191, "alt_km": 833.6045730590049, "timestamp": "2025-12-09T09:46:47.290613+00:00", "meta": {"OBJECT_NAME": "FENGYUN 3D", "OBJECT_ID": "2017-072A", "EPOCH": "2025-12-09T05:08:43.973376", "MEAN_MOTION": 14.19681896, "ECCENTRICITY": 7.34e-05, "INCLINATION": 98.9891, "RA_OF_ASC_NODE": 309.4715, "ARG_OF_PERICENTER": 192.5494, "MEAN_ANOMALY": 167.5663, "EPHEMERIS_TYPE": 0, "CLASSIFICATION_TYPE": "U", "NORAD_CAT_ID": 43010, "ELEMENT_SET_NO": 999, "REV_AT_EPOCH": 41803, "BSTAR": 6.4598e-05, "MEAN_MOTION_DOT": 9.1e-07, "MEAN_MOTION_DDOT": 0}, "tle": {"line1": "1 43010U 17072A   25343.21439784  .00000091  00000+0  64598-4 0  9995", "line2": "2 43010  98.9891 309.4715 0000734 192.5494 167.5663 14.19681896418034"}}, "geometry": {"type": "Point", "coordinates": [61.27943253584191, -80.33750434339099]}}, {"type": "Feature", "properties": {"norad_id": 43013, "name": "NOAA 20 (JPSS-1)", "group": "weather", "lat": 59.50279839883786, "lon": -95.4347589859932, "alt_km": 819.8412657912677, "timestamp": "2025-12-09T09:46:47.290625+00:00", "meta": {"OBJECT_NAME": "NOAA 20 (JPSS-1)", "OBJECT_ID": "2017-073A", "EPOCH": "2025-12-09T02:43:42.331296", "MEAN_MOTION": 14.1952405, "ECCENTRICITY": 0.0002141, "INCLINATION": 98.7594, "RA_OF_ASC_NODE": 279.4502, "ARG_OF_PERICENTER": 92.6287, "MEAN_ANOMALY": 267.5134, "EPHEMERIS_TYPE": 0, "CLASSIFICATION_TYPE": "U", "NORAD_CAT_ID": 43013, "ELEMENT_SET_NO": 999, "REV_AT_EPOCH": 41750, "BSTAR": 9.101e-05, "MEAN_MOTION_DOT": 1.48e-06, "MEAN_MOTION_DDOT": 0}, "tle": {"line1": "1 43013U 17073A   25343.11368439  .00000148  00000+0  91010-4 0  9998", "line2": "2 43013  98.7594 279.4502 0002141  92.6287 267.5134 14.19524050417502"}}, "geometry": {"type": "Point", "coordinates": [-95.4347589859932, 59.50279839883786]}}, {"type": "Feature", "properties": {"norad_id": 43226, "name": "GOES 17", "group": "weather", "lat": 0.3364799706574604, "lon": 135.57013892791815, "alt_km": 35797.02543912591, "timestamp": "2025-12-09T09:46:47.290637+00:00", "meta": {"OBJECT_NAME": "GOES 17", "OBJECT_ID": "2018-022A", "EPOCH": "2025-12-09T04:04:38.821728", "MEAN_MOTION": 1.00271672, "ECCENTRICITY": 0.0003411, "INCLINATION": 0.4508, "RA_OF_ASC_NODE": 89.1675, "ARG_OF_PERICENTER": 185.8102, "MEAN_ANOMALY": 134.8525, "EPHEMERIS_TYPE": 0, "CLASSIFICATION_TYPE": "U", "NORAD_CAT_ID": 43226, "ELEMENT_SET_NO": 999, "REV_AT_EPOCH": 2851, "BSTAR": 0, "MEAN_MOTION_DOT": -1.8e-06, "MEAN_MOTION_DDOT": 0}, "tle": {"line1": "1 43226U 18022A   25343.16989377 -.00000180  00000+0  00000+0 0  9995", "line2": "2 43226   0.4508  89.1675 0003411 185.8102 134.8525  1.00271672 28516"}}, "geometry": {"type": "Point", "coordinates": [135.57013892791815, 0.3364799706574604]}}, {"type": "Feature", "properties": {"norad_id": 43491, "name": "FENGYUN 2H", "group": "weather", "lat": -1.7519217500572413, "lon": -55.54158213526577, "alt_km": 35780.04457606449, "timestamp": "2025-12-09T09:46:47.290665+00:00", "meta": {"OBJECT_NAME": "FENGYUN 2H", "OBJECT_ID": "2018-050A", "EPOCH": "2025-12-09T01:58:00.442848", "MEAN_MOTION": 1.00271088, "ECCENTRICITY": 0.0002944, "INCLINATION": 2.5409, "RA_OF_ASC_NODE": 81.3558, "ARG_OF_PERICENTER": 164.2902, "MEAN_ANOMALY": 301.2959, "EPHEMERIS_TYPE": 0, "CLASSIFICATION_TYPE": "U", "NORAD_CAT_ID": 43491, "ELEMENT_SET_NO": 999, "REV_AT_EPOCH": 2753, "BSTAR": 0, "MEAN_MOTION_DOT": -1.28e-06, "MEAN_MOTION_DDOT": 0}, "tle": {"line1": "1 43491U 18050A   25343.08194957 -.00000128  00000+0  00000+0 0  9995", "line2": "2 43491   2.5409  81.3558 0002944 164.2902 301.2959  1.00271088 27539"}}, "geometry": {"type": "Point", "coordinates": [-55.54158213526577, -1.7519217500572413]}}, {"type": "Feature", "properties": {"norad_id": 43689, "name": "METOP-C", "group": "weather", "lat": 1.6604905990714545, "lon": -138.51777219649395, "alt_km": 823.6435967658308, "timestamp": "2025-12-09T09:46:47.290678+00:00", "meta": {"OBJECT_NAME": "METOP-C", "OBJECT_ID": "2018-087A", "EPOCH": "2025-12-09T03:52:34.896864", "MEAN_MOTION": 14.21509628, "ECCENTRICITY": 0.0001484, "INCLINATION": 98.6934, "RA_OF_ASC_NODE": 40.9859, "ARG_OF_PERICENTER": 48.3671, "MEAN_ANOMALY": 311.7633, "EPHEMERIS_TYPE": 0, "CLASSIFICATION_TYPE": "U", "NORAD_CAT_ID": 43689, "ELEMENT_SET_NO": 999, "REV_AT_EPOCH": 36783, "BSTAR": 0.00011876, "MEAN_MOTION_DOT": 2.16e-06, "MEAN_MOTION_DDOT": 0}, "tle": {"line1": "1 43689U 18087A   25343.16151501  .00000216  00000+0  11876-3 0  9995", "line2": "2 43689  98.6934  40.9859 0001484  48.3671 311.7633 14.21509628367831"}}, "geometry": {"type": "Point", "coordinates": [-138.51777219649395, 1.6604905990714545]}}, {"type": "Feature", "properties": {"norad_id": 43823, "name": "GEO-KOMPSAT-2A", "group": "weather", "lat": -0.04582329962579542, "lon": -6.638630960058118, "alt_km": 35787.146299568194, "timestamp": "2025-12-09T09:46:47.290691+00:00", "meta": {"OBJECT_NAME": "GEO-KOMPSAT-2A", "OBJECT_ID": "2018-100A", "EPOCH": "2025-12-08T09:04:40.751616", "MEAN_MOTION": 1.00270893, "ECCENTRICITY": 1.774e-05, "INCLINATION": 0.0576, "RA_OF_ASC_NODE": 113.8278, "ARG_OF_PERICENTER": 87.1447, "MEAN_ANOMALY": 140.8536, "EPHEMERIS_TYPE": 0, "CLASSIFICATION_TYPE": "U", "NORAD_CAT_ID": 43823, "ELEMENT_SET_NO": 999, "REV_AT_EPOCH": 2571, "BSTAR": 0, "MEAN_MOTION_DOT": -3.41e-06, "MEAN_MOTION_DDOT": 0}, "tle": {"line1": "1 43823U 18100A   25342.37824944 -.00000341  00000+0  00000+0 0  9994", "line2": "2 43823   0.0576 113.8278 0000177  87.1447 140.8536  1.00270893 25718"}}, "geometry": {"type": "Point", "coordinates": [-6.638630960058118, -0.04582329962579542]}}, {"type": "Feature", "properties": {"norad_id": 44387, "name": "METEOR-M2 2", "group": "weather", "lat": -38.244834119610374, "lon": 136.00317168990927, "alt_km": 816.9162092066135, "timestamp": "2025-12-09T09:46:47.290703+00:00", "meta": {"OBJECT_NAME": "METEOR-M2 2", "OBJECT_ID": "2019-038A", "EPOCH": "2025-12-09T05:23:03.086592", "MEAN_MOTION": 14.24289407, "ECCENTRICITY": 0.00011, "INCLINATION": 98.8968, "RA_OF_ASC_NODE": 322.9097, "ARG_OF_PERICENTER": 154.7524, "MEAN_ANOMALY": 205.3708, "EPHEMERIS_TYPE": 0, "CLASSIFICATION_TYPE": "U", "NORAD_CAT_ID": 44387, "ELEMENT_SET_NO": 999, "REV_AT_EPOCH": 33425, "BSTAR": 0.00020581, "MEAN_MOTION_DOT": 4.29e-06, "MEAN_MOTION_DDOT": 0}, "tle": {"line1": "1 44387U 19038A   25343.22434128  .00000429  00000+0  20581-3 0  9993", "line2": "2 44387  98.8968 322.9097 0001100 154.7524 205.3708 14.24289407334251"}}, "geometry": {"type": "Point", "coordinates": [136.00317168990927, -38.244834119610374]}}, {"type": "Feature", "properties": {"norad_id": 47719, "name": "ARKTIKA-M 1", "group": "weather", "lat": 59.14894777302408, "lon": -153.298206916599, "alt_km": 34781.66815368274, "timestamp": "2025-12-09T09:46:47.290724+00:00", "meta": {"OBJECT_NAME": "ARKTIKA-M 1", "OBJECT_ID": "2021-016A", "EPOCH": "2025-12-01T02:41:41.634816", "MEAN_MOTION": 2.00613156, "ECCENTRICITY": 0.71974708, "INCLINATION": 63.1756, "RA_OF_ASC_NODE": 85.6045, "ARG_OF_PERICENTER": 269.084, "MEAN_ANOMALY": 15.7076, "EPHEMERIS_TYPE": 0, "CLASSIFICATION_TYPE": "U", "NORAD_CAT_ID": 47719, "ELEMENT_SET_NO": 999, "REV_AT_EPOCH": 3481, "BSTAR": 0, "MEAN_MOTION_DOT": -1.2e-07, "MEAN_MOTION_DDOT": 0}, "tle": {"line1": "1 47719U 21016A   25335.11228744 -.00000012  00000+0  00000+0 0  9997", "line2": "2 47719  63.1756  85.6045 7197470 269.0840  15.7076  2.00613156 34816"}}, "geometry": {"type": "Point", "coordinates": [-153.298206916599, 59.14894777302408]}}, {"type": "Feature", "properties": {"norad_id": 49008, "name": "FENGYUN 3E", "group": "weather", "lat": -50.11776714633939, "lon": 153.3501683849957, "alt_km": 832.420695941988, "timestamp": "2025-12-09T09:46:47.290760+00:00", "meta": {"OBJECT_NAME": "FENGYUN 3E", "OBJECT_ID": "2021-062A", "EPOCH": "2025-12-09T00:14:22.512192", "MEAN_MOTION": 14.19877852, "ECCENTRICITY": 6.106e-05, "INCLINATION": 98.7471, "RA_OF_ASC_NODE": 343.5749, "ARG_OF_PERICENTER": 294.211, "MEAN_ANOMALY": 65.9002, "EPHEMERIS_TYPE": 0, "CLASSIFICATION_TYPE": "U", "NORAD_CAT_ID": 49008, "ELEMENT_SET_NO": 999, "REV_AT_EPOCH": 22959, "BSTAR": -0.00011244259, "MEAN_MOTION_DOT": -2.83e-06, "MEAN_MOTION_DDOT": 0}, "tle": {"line1": "1 49008U 21062A   25343.00998278 -.00000283  00000+0 -11244-3 0  9991", "line2": "2 49008  98.7471 343.5749 0000610 294.2110  65.9002 14.19877852229591"}}, "geometry": {"type": "Point", "coordinates": [153.3501683849957, -50.11776714633939]}}, {"type": "Feature", "properties": {"norad_id": 51850, "name": "GOES 18", "group": "weather", "lat": 0.005014289319042535, "lon": 88.09518870152084, "alt_km": 35788.945242079906, "timestamp": "2025-12-09T09:46:47.290779+00:00", "meta": {"OBJECT_NAME": "GOES 18", "OBJECT_ID": "2022-021A", "EPOCH": "2025-12-08T18:05:20.073984", "MEAN_MOTION": 1.00270752, "ECCENTRICITY": 7.187e-05, "INCLINATION": 0.0115, "RA_OF_ASC_NODE": 94.7936, "ARG_OF_PERICENTER": 202.9599, "MEAN_ANOMALY": 274.3353, "EPHEMERIS_TYPE": 0, "CLASSIFICATION_TYPE": "U", "NORAD_CAT_ID": 51850, "ELEMENT_SET_NO": 999, "REV_AT_EPOCH": 468, "BSTAR": 0, "MEAN_MOTION_DOT": 9.9e-07, "MEAN_MOTION_DDOT": 0}, "tle": {"line1": "1 51850U 22021A   25342.75370456  .00000099  00000+0  00000+0 0  9995", "line2": "2 51850   0.0115  94.7936 0000718 202.9599 274.3353  1.00270752  4687"}}, "geometry": {"type": "Point", "coordinates": [88.09518870152084, 0.005014289319042535]}}]}